CCSDS_OMM_VERS = 2.0
CREATION_DATE  = 
ORIGINATOR     = 

OBJECT_NAME    = IDEFIX & ARIANE 42P R/B
OBJECT_ID      = 2002-021B
CENTER_NAME    = EARTH
REF_FRAME      = TEME
TIME_SYSTEM    = UTC
MEAN_ELEMENT_THEORY = SGP/SGP4

EPOCH          = 2026-02-15T18:00:54.399168
MEAN_MOTION    = 14.31010072
ECCENTRICITY   = .0010632
INCLINATION    = 98.5848
RA_OF_ASC_NODE = 345.6223
ARG_OF_PERICENTER = 251.3083
MEAN_ANOMALY   = 108.6946

EPHEMERIS_TYPE = 0
CLASSIFICATION_TYPE = U
NORAD_CAT_ID   = 27422
ELEMENT_SET_NO = 999
REV_AT_EPOCH   = 24088
BSTAR          = .12713E-3
MEAN_MOTION_DOT = .291E-5
MEAN_MOTION_DDOT = 0

CCSDS_OMM_VERS = 2.0
CREATION_DATE  = 
ORIGINATOR     = 

OBJECT_NAME    = AQUA
OBJECT_ID      = 2002-022A
CENTER_NAME    = EARTH
REF_FRAME      = TEME
TIME_SYSTEM    = UTC
MEAN_ELEMENT_THEORY = SGP/SGP4

EPOCH          = 2026-02-15T20:17:35.727360
MEAN_MOTION    = 14.61921773
ECCENTRICITY   = .0001257
INCLINATION    = 98.4134
RA_OF_ASC_NODE = 13.8196
ARG_OF_PERICENTER = 48.5898
MEAN_ANOMALY   = 341.5148

EPHEMERIS_TYPE = 0
CLASSIFICATION_TYPE = U
NORAD_CAT_ID   = 27424
ELEMENT_SET_NO = 999
REV_AT_EPOCH   = 26554
BSTAR          = .23546E-3
MEAN_MOTION_DOT = .1129E-4
MEAN_MOTION_DDOT = 0

CCSDS_OMM_VERS = 2.0
CREATION_DATE  = 
ORIGINATOR     = 

OBJECT_NAME    = CZ-4B R/B
OBJECT_ID      = 2002-024C
CENTER_NAME    = EARTH
REF_FRAME      = TEME
TIME_SYSTEM    = UTC
MEAN_ELEMENT_THEORY = SGP/SGP4

EPOCH          = 2026-02-15T19:16:01.277184
MEAN_MOTION    = 14.14543584
ECCENTRICITY   = .0051202
INCLINATION    = 98.8890
RA_OF_ASC_NODE = 100.3145
ARG_OF_PERICENTER = 85.4667
MEAN_ANOMALY   = 32.6714

EPHEMERIS_TYPE = 0
CLASSIFICATION_TYPE = U
NORAD_CAT_ID   = 27432
ELEMENT_SET_NO = 999
REV_AT_EPOCH   = 22614
BSTAR          = .47894E-4
MEAN_MOTION_DOT = .49E-6
MEAN_MOTION_DDOT = 0

CCSDS_OMM_VERS = 2.0
CREATION_DATE  = 
ORIGINATOR     = 

OBJECT_NAME    = MIDORI II (ADEOS-II)
OBJECT_ID      = 2002-056A
CENTER_NAME    = EARTH
REF_FRAME      = TEME
TIME_SYSTEM    = UTC
MEAN_ELEMENT_THEORY = SGP/SGP4

EPOCH          = 2026-02-15T19:43:47.247168
MEAN_MOTION    = 14.29268635
ECCENTRICITY   = .0002163
INCLINATION    = 98.7730
RA_OF_ASC_NODE = 5.1541
ARG_OF_PERICENTER = 72.3958
MEAN_ANOMALY   = 287.7460

EPHEMERIS_TYPE = 0
CLASSIFICATION_TYPE = U
NORAD_CAT_ID   = 27597
ELEMENT_SET_NO = 999
REV_AT_EPOCH   = 20717
BSTAR          = .14892E-3
MEAN_MOTION_DOT = .333E-5
MEAN_MOTION_DDOT = 0

CCSDS_OMM_VERS = 2.0
CREATION_DATE  = 
ORIGINATOR     = 

OBJECT_NAME    = H-2A R/B
OBJECT_ID      = 2002-056E
CENTER_NAME    = EARTH
REF_FRAME      = TEME
TIME_SYSTEM    = UTC
MEAN_ELEMENT_THEORY = SGP/SGP4

EPOCH          = 2026-02-15T19:04:14.422368
MEAN_MOTION    = 14.33745299
ECCENTRICITY   = .0069233
INCLINATION    = 98.3163
RA_OF_ASC_NODE = 7.9992
ARG_OF_PERICENTER = 226.2157
MEAN_ANOMALY   = 197.4883

EPHEMERIS_TYPE = 0
CLASSIFICATION_TYPE = U
NORAD_CAT_ID   = 27601
ELEMENT_SET_NO = 999
REV_AT_EPOCH   = 21097
BSTAR          = .12223E-3
MEAN_MOTION_DOT = .307E-5
MEAN_MOTION_DDOT = 0

CCSDS_OMM_VERS = 2.0
CREATION_DATE  = 
ORIGINATOR     = 

OBJECT_NAME    = CZ-4B R/B
OBJECT_ID      = 2003-049C
CENTER_NAME    = EARTH
REF_FRAME      = TEME
TIME_SYSTEM    = UTC
MEAN_ELEMENT_THEORY = SGP/SGP4

EPOCH          = 2026-02-15T14:00:56.565792
MEAN_MOTION    = 14.54996354
ECCENTRICITY   = .0047144
INCLINATION    = 98.6854
RA_OF_ASC_NODE = 40.6257
ARG_OF_PERICENTER = 299.9877
MEAN_ANOMALY   = 59.6644

EPHEMERIS_TYPE = 0
CLASSIFICATION_TYPE = U
NORAD_CAT_ID   = 28059
ELEMENT_SET_NO = 999
REV_AT_EPOCH   = 18338
BSTAR          = .12805E-3
MEAN_MOTION_DOT = .507E-5
MEAN_MOTION_DDOT = 0

CCSDS_OMM_VERS = 2.0
CREATION_DATE  = 
ORIGINATOR     = 

OBJECT_NAME    = CZ-2C R/B
OBJECT_ID      = 2004-012C
CENTER_NAME    = EARTH
REF_FRAME      = TEME
TIME_SYSTEM    = UTC
MEAN_ELEMENT_THEORY = SGP/SGP4

EPOCH          = 2026-02-15T17:10:31.010880
MEAN_MOTION    = 15.61942113
ECCENTRICITY   = .001524
INCLINATION    = 97.7291
RA_OF_ASC_NODE = 109.9674
ARG_OF_PERICENTER = 35.4919
MEAN_ANOMALY   = 324.7349

EPHEMERIS_TYPE = 0
CLASSIFICATION_TYPE = U
NORAD_CAT_ID   = 28222
ELEMENT_SET_NO = 999
REV_AT_EPOCH   = 20084
BSTAR          = .66341E-3
MEAN_MOTION_DOT = .5824E-3
MEAN_MOTION_DDOT = 0

CCSDS_OMM_VERS = 2.0
CREATION_DATE  = 
ORIGINATOR     = 

OBJECT_NAME    = SL-16 R/B
OBJECT_ID      = 2004-021B
CENTER_NAME    = EARTH
REF_FRAME      = TEME
TIME_SYSTEM    = UTC
MEAN_ELEMENT_THEORY = SGP/SGP4

EPOCH          = 2026-02-15T17:57:30.585888
MEAN_MOTION    = 14.14593907
ECCENTRICITY   = .0003185
INCLINATION    = 70.9989
RA_OF_ASC_NODE = 278.5402
ARG_OF_PERICENTER = 63.1088
MEAN_ANOMALY   = 297.0360

EPHEMERIS_TYPE = 0
CLASSIFICATION_TYPE = U
NORAD_CAT_ID   = 28353
ELEMENT_SET_NO = 999
REV_AT_EPOCH   = 11973
BSTAR          = .20205E-3
MEAN_MOTION_DOT = .341E-5
MEAN_MOTION_DDOT = 0

CCSDS_OMM_VERS = 2.0
CREATION_DATE  = 
ORIGINATOR     = 

OBJECT_NAME    = CZ-4B R/B
OBJECT_ID      = 2004-035C
CENTER_NAME    = EARTH
REF_FRAME      = TEME
TIME_SYSTEM    = UTC
MEAN_ELEMENT_THEORY = SGP/SGP4

EPOCH          = 2026-02-15T14:10:17.434848
MEAN_MOTION    = 15.28647141
ECCENTRICITY   = .0033669
INCLINATION    = 97.3536
RA_OF_ASC_NODE = 81.1016
ARG_OF_PERICENTER = 49.5142
MEAN_ANOMALY   = 310.9023

EPHEMERIS_TYPE = 0
CLASSIFICATION_TYPE = U
NORAD_CAT_ID   = 28415
ELEMENT_SET_NO = 999
REV_AT_EPOCH   = 17653
BSTAR          = .31673E-3
MEAN_MOTION_DOT = .89E-4
MEAN_MOTION_DDOT = 0

CCSDS_OMM_VERS = 2.0
CREATION_DATE  = 
ORIGINATOR     = 

OBJECT_NAME    = CZ-2C R/B
OBJECT_ID      = 2004-046B
CENTER_NAME    = EARTH
REF_FRAME      = TEME
TIME_SYSTEM    = UTC
MEAN_ELEMENT_THEORY = SGP/SGP4

EPOCH          = 2026-02-15T17:58:03.319392
MEAN_MOTION    = 14.26984270
ECCENTRICITY   = .0138534
INCLINATION    = 98.1995
RA_OF_ASC_NODE = 323.0959
ARG_OF_PERICENTER = 219.4068
MEAN_ANOMALY   = 139.6973

EPHEMERIS_TYPE = 0
CLASSIFICATION_TYPE = U
NORAD_CAT_ID   = 28480
ELEMENT_SET_NO = 999
REV_AT_EPOCH   = 10537
BSTAR          = .57026E-4
MEAN_MOTION_DOT = .112E-5
MEAN_MOTION_DDOT = 0

CCSDS_OMM_VERS = 2.0
CREATION_DATE  = 
ORIGINATOR     = 

OBJECT_NAME    = ARIANE 5 R/B
OBJECT_ID      = 2004-049H
CENTER_NAME    = EARTH
REF_FRAME      = TEME
TIME_SYSTEM    = UTC
MEAN_ELEMENT_THEORY = SGP/SGP4

EPOCH          = 2026-02-15T11:14:08.764800
MEAN_MOTION    = 14.85222337
ECCENTRICITY   = .00853401
INCLINATION    = 98.2589
RA_OF_ASC_NODE = 214.0992
ARG_OF_PERICENTER = 63.5442
MEAN_ANOMALY   = 297.4495

EPHEMERIS_TYPE = 0
CLASSIFICATION_TYPE = U
NORAD_CAT_ID   = 28499
ELEMENT_SET_NO = 999
REV_AT_EPOCH   = 14249
BSTAR          = .1256803E-3
MEAN_MOTION_DOT = .1086E-4
MEAN_MOTION_DDOT = 0

CCSDS_OMM_VERS = 2.0
CREATION_DATE  = 
ORIGINATOR     = 

OBJECT_NAME    = CZ-2D R/B
OBJECT_ID      = 2005-024B
CENTER_NAME    = EARTH
REF_FRAME      = TEME
TIME_SYSTEM    = UTC
MEAN_ELEMENT_THEORY = SGP/SGP4

EPOCH          = 2026-02-15T13:35:31.324128
MEAN_MOTION    = 15.58155392
ECCENTRICITY   = .0007683
INCLINATION    = 97.3608
RA_OF_ASC_NODE = 60.9362
ARG_OF_PERICENTER = 99.1773
MEAN_ANOMALY   = 261.0352

EPHEMERIS_TYPE = 0
CLASSIFICATION_TYPE = U
NORAD_CAT_ID   = 28738
ELEMENT_SET_NO = 999
REV_AT_EPOCH   = 13633
BSTAR          = .57195E-3
MEAN_MOTION_DOT = .432E-3
MEAN_MOTION_DDOT = 0

