IDEFIX & ARIANE 42P R/B 
1 27422U 02021B   26046.75062962  .00000291  00000+0  12713-3 0  9995
2 27422  98.5848 345.6223 0010632 251.3083 108.6946 14.31010072240885
AQUA                    
1 27424U 02022A   26046.84555240  .00001129  00000+0  23546-3 0  9991
2 27424  98.4134  13.8196 0001257  48.5898 341.5148 14.61921773265544
CZ-4B R/B               
1 27432U 02024C   26046.80279256  .00000049  00000+0  47894-4 0  9991
2 27432  98.8890 100.3145 0051202  85.4667  32.6714 14.14543584226149
MIDORI II (ADEOS-II)    
1 27597U 02056A   26046.82207462  .00000333  00000+0  14892-3 0  9997
2 27597  98.7730   5.1541 0002163  72.3958 287.7460 14.29268635207175
H-2A R/B                
1 27601U 02056E   26046.79461137  .00000307  00000+0  12223-3 0  9997
2 27601  98.3163   7.9992 0069233 226.2157 197.4883 14.33745299210978
CZ-4B R/B               
1 28059U 03049C   26046.58398803  .00000507  00000+0  12805-3 0  9992
2 28059  98.6854  40.6257 0047144 299.9877  59.6644 14.54996354183388
CZ-2C R/B               
1 28222U 04012C   26046.71563670  .00058240  00000+0  66341-3 0  9997
2 28222  97.7291 109.9674 0015240  35.4919 324.7349 15.61942113200841
SL-16 R/B               
1 28353U 04021B   26046.74827067  .00000341  00000+0  20205-3 0  9996
2 28353  70.9989 278.5402 0003185  63.1088 297.0360 14.14593907119737
CZ-4B R/B               
1 28415U 04035C   26046.59047957  .00008900  00000+0  31673-3 0  9995
2 28415  97.3536  81.1016 0033669  49.5142 310.9023 15.28647141176533
CZ-2C R/B               
1 28480U 04046B   26046.74864953  .00000112  00000+0  57026-4 0  9997
2 28480  98.1995 323.0959 0138534 219.4068 139.6973 14.26984270105377
ARIANE 5 R/B            
1 28499U 04049H   26046.46815700  .00001086  00000+0  12568-3 0  9997
2 28499  98.2589 214.0992 0085340  63.5442 297.4495 14.85222337142493
CZ-2D R/B               
1 28738U 05024B   26046.56633477  .00043200  00000+0  57195-3 0  9996
2 28738  97.3608  60.9362 0007683  99.1773 261.0352 15.58155392136338
